NORAD_CAT_ID,OBJECT_NAME,OBJECT_TYPE,EPOCH,MEAN_MOTION,ECCENTRICITY,INCLINATION,RA_OF_ASC_NODE,ARG_OF_PERICENTER,MEAN_ANOMALY,BSTAR,MEAN_MOTION_DOT,MEAN_MOTION_DDOT,TLE_LINE0,TLE_LINE1,TLE_LINE2,SEMIMAJOR_AXIS,PERIOD,APOGEE,PERIGEE,DECAYED
56457.0,STARLINK-5994,PAYLOAD,2024-02-29 12:09:09,14.98330694,0.0002743,70.0002,208.195,270.9858,89.0986,-7.6177e-05,-1.002e-05,0.0,0 STARLINK-5994,1 56457U 23064K   24060.50636216 -.00001002  00000-0 -76177-4 0  9990,2 56457  70.0002 208.1950 0002743 270.9858  89.0986 14.98330694 44889,6950.191,96.107,573.962,570.149,0.0
56457.0,STARLINK-5994,PAYLOAD,2024-02-29 13:45:17,14.98330698,0.000277,70.0003,208.0266,271.6075,88.4766,-6.8857e-05,-9.14e-06,0.0,0 STARLINK-5994,1 56457U 23064K   24060.57312185 -.00000914  00000-0 -68857-4 0  9990,2 56457  70.0003 208.0266 0002770 271.6075  88.4766 14.98330698 44533,6950.191,96.107,573.981,570.131,0.0
56457.0,STARLINK-5994,PAYLOAD,2024-02-29 20:09:49,14.9833059,0.0002705,70.0004,207.3535,269.2828,90.8021,-7.1321e-05,-9.44e-06,0.0,0 STARLINK-5994,1 56457U 23064K   24060.84016194 -.00000944  00000-0 -71321-4 0  9994,2 56457  70.0004 207.3535 0002705 269.2828  90.8021 14.98330590 44578,6950.191,96.107,573.936,570.176,0.0
56457.0,STARLINK-5994,PAYLOAD,2024-03-01 12:11:10,14.9833244,0.00031,69.9998,205.67,274.4391,85.6414,1.8464e-05,1.27e-06,0.0,0 STARLINK-5994,1 56457U 23064K   24061.50775692  .00000127  00000-0  18464-4 0  9993,2 56457  69.9998 205.6700 0003100 274.4391  85.6414 14.98332440 45031,6950.185,96.107,574.205,569.896,0.0
56457.0,STARLINK-5994,PAYLOAD,2024-03-01 13:47:18,14.98333466,0.000303,69.9998,205.5016,275.0379,85.0434,1.5386e-05,9.1e-07,0.0,0 STARLINK-5994,1 56457U 23064K   24061.57451695  .00000091  00000-0  15386-4 0  9994,2 56457  69.9998 205.5016 0003030 275.0379  85.0434 14.98333466 44680,6950.182,96.107,574.153,569.941,0.0
56457.0,STARLINK-5994,PAYLOAD,2024-03-01 18:35:41,14.98338368,0.0002854,70.0001,204.9973,269.394,90.6892,6.698e-05,7.06e-06,0.0,0 STARLINK-5994,1 56457U 23064K   24061.77479157  .00000706  00000-0  66980-4 0  9998,2 56457  70.0001 204.9973 0002854 269.3940  90.6892 14.98338368 44716,6950.167,96.106,574.016,570.048,0.0
56457.0,STARLINK-5994,PAYLOAD,2024-03-02 12:13:11,14.98327129,0.0002791,70.0003,203.1453,267.6691,92.4149,6.6255e-06,-1.4e-07,0.0,0 STARLINK-5994,1 56457U 23064K   24062.50915852 -.00000014  00000-0  66255-5 0  9996,2 56457  70.0003 203.1453 0002791 267.6691  92.4149 14.98327129 45186,6950.202,96.107,574.007,570.127,0.0
56457.0,STARLINK-5994,PAYLOAD,2024-03-02 13:49:19,14.98326529,0.0002848,70.0001,202.9768,268.3159,91.7674,-4.9801e-06,-1.52e-06,0.0,0 STARLINK-5994,1 56457U 23064K   24062.57591931 -.00000152  00000-0 -49801-5 0  9993,2 56457  70.0001 202.9768 0002848 268.3159  91.7674 14.98326529 44839,6950.204,96.107,574.048,570.089,0.0
56457.0,STARLINK-5994,PAYLOAD,2024-03-02 18:37:43,14.98323535,0.0002552,70.0003,202.4712,256.4894,103.5981,-3.2433e-05,-4.8e-06,0.0,0 STARLINK-5994,1 56457U 23064K   24062.77620231 -.00000480  00000-0 -32433-4 0  9997,2 56457  70.0003 202.4712 0002552 256.4894 103.5981 14.98323535 44861,6950.213,96.107,573.852,570.304,0.0
56457.0,STARLINK-5994,PAYLOAD,2024-03-03 12:15:12,14.98331845,0.0002976,70.0001,200.6202,269.1789,90.9029,-6.5881e-05,-8.79e-06,0.0,0 STARLINK-5994,1 56457U 23064K   24063.51055897 -.00000879  00000-0 -65881-4 0  9995,2 56457  70.0001 200.6202 0002976 269.1789  90.9029 14.98331845 45335,6950.187,96.107,574.121,569.984,0.0
56457.0,STARLINK-5994,PAYLOAD,2024-03-03 18:39:44,14.9833437,0.000295,70.0002,199.9472,269.5534,90.5287,-3.0166e-05,-4.53e-06,0.0,0 STARLINK-5994,1 56457U 23064K   24063.77759597 -.00000453  00000-0 -30166-4 0  9997,2 56457  70.0002 199.9472 0002950 269.5534  90.5287 14.98334370 45012,6950.179,96.107,574.095,569.994,0.0
56457.0,STARLINK-5994,PAYLOAD,2024-03-04 12:17:11,14.98340683,0.0003097,70.0,198.095,268.4832,91.5972,0.0001766,2.015e-05,0.0,0 STARLINK-5994,1 56457U 23064K   24064.51194217  .00002015  00000-0  17660-3 0  9999,2 56457  70.0000 198.0950 0003097 268.4832  91.5972 14.98340683 45480,6950.16,96.106,574.177,569.872,0.0
56457.0,STARLINK-5994,PAYLOAD,2024-03-04 13:53:19,14.98341257,0.0003094,70.0001,197.9269,268.5819,91.4986,0.00017992,2.055e-05,0.0,0 STARLINK-5994,1 56457U 23064K   24064.57870124  .00002055  00000-0  17992-3 0  9995,2 56457  70.0001 197.9269 0003094 268.5819  91.4986 14.98341257 45139,6950.158,96.106,574.173,569.873,0.0
56457.0,STARLINK-5994,PAYLOAD,2024-03-04 18:41:43,14.98347021,0.0003091,70.0004,197.4235,270.0419,90.0386,0.00023136,2.67e-05,0.0,0 STARLINK-5994,1 56457U 23064K   24064.77897458  .00002670  00000-0  23136-3 0  9996,2 56457  70.0004 197.4235 0003091 270.0419  90.0386 14.98347021 45168,6950.14,96.106,574.154,569.857,0.0
56457.0,STARLINK-5994,PAYLOAD,2024-03-05 13:55:23,14.98311085,0.0002989,70.0003,195.4022,269.9932,90.0884,-0.00017164,-2.139e-05,0.0,0 STARLINK-5994,1 56457U 23064K   24065.58013002 -.00002139  00000-0 -17164-3 0  9997,2 56457  70.0003 195.4022 0002989 269.9932  90.0884 14.98311085 45288,6950.251,96.108,574.194,570.039,0.0
56457.0,STARLINK-5994,PAYLOAD,2024-03-05 18:43:47,14.98318633,0.0002993,70.0002,194.8985,267.7374,92.3443,-0.00013372,-1.688e-05,0.0,0 STARLINK-5994,1 56457U 23064K   24065.78040609 -.00001688  00000-0 -13372-3 0  9997,2 56457  70.0002 194.8985 0002993 267.7374  92.3443 14.98318633 45674,6950.228,96.108,574.173,570.013,0.0
56457.0,STARLINK-5994,PAYLOAD,2024-03-06 10:45:06,14.98334761,0.0003204,70.0001,193.2135,273.4256,86.6536,-0.00014145,-1.781e-05,0.0,0 STARLINK-5994,1 56457U 23064K   24066.44799604 -.00001781  00000-0 -14145-3 0  9990,2 56457  70.0001 193.2135 0003204 273.4256  86.6536 14.98334761 45772,6950.178,96.107,574.27,569.816,0.0
56457.0,STARLINK-5994,PAYLOAD,2024-03-06 18:45:46,14.98345044,0.0002927,70.0005,192.3738,269.9533,90.1291,-2.6896e-05,-4.14e-06,0.0,0 STARLINK-5994,1 56457U 23064K   24066.78178488 -.00000414  00000-0 -26896-4 0  9997,2 56457  70.0005 192.3738 0002927 269.9533  90.1291 14.98345044 45824,6950.146,96.106,574.046,569.977,0.0
56457.0,STARLINK-5994,PAYLOAD,2024-03-07 13:59:24,14.98319368,0.0002522,70.0003,190.3519,260.2741,99.8133,0.00014831,1.677e-05,0.0,0 STARLINK-5994,1 56457U 23064K   24067.58291794  .00001677  00000-0  14831-3 0  9997,2 56457  70.0003 190.3519 0002522 260.2741  99.8133 14.98319368 45587,6950.226,96.108,573.844,570.338,0.0
56457.0,STARLINK-5994,PAYLOAD,2024-03-08 14:01:24,14.98334014,0.0002771,70.0003,187.8284,265.514,94.5702,1.4559e-06,-7.6e-07,0.0,0 STARLINK-5994,1 56457U 23064K   24068.58431375 -.00000076  00000-0  14559-5 0  9991,2 56457  70.0003 187.8284 0002771 265.5140  94.5702 14.98334014 46090,6950.18,96.107,573.971,570.12,0.0
56457.0,STARLINK-5994,PAYLOAD,2024-03-08 18:49:48,14.98334906,0.0002707,70.0003,187.3234,263.6861,96.3989,1.2831e-05,6e-07,0.0,0 STARLINK-5994,1 56457U 23064K   24068.78459233  .00000060  00000-0  12831-4 0  9998,2 56457  70.0003 187.3234 0002707 263.6861  96.3989 14.98334906 45768,6950.178,96.107,573.924,570.161,0.0
56457.0,STARLINK-5994,PAYLOAD,2024-03-09 10:51:09,14.98315292,0.0003379,69.9985,185.6365,265.7287,94.3486,0.00021665,2.492e-05,0.0,0 STARLINK-5994,1 56457U 23064K   24069.45219737  .00002492  00000-0  21665-3 0  9991,2 56457  69.9985 185.6365 0003379 265.7287  94.3486 14.98315292 46220,6950.238,96.108,574.452,569.755,0.0
56457.0,STARLINK-5994,PAYLOAD,2024-03-09 14:03:25,14.98330097,0.0002946,69.9995,185.3023,262.6392,97.4433,2.6482e-05,2.23e-06,0.0,0 STARLINK-5994,1 56457U 23064K   24069.58571428  .00000223  00000-0  26482-4 0  9996,2 56457  69.9995 185.3023 0002946 262.6392  97.4433 14.98330097 45888,6950.193,96.107,574.105,570.01,0.0
56457.0,STARLINK-5994,PAYLOAD,2024-03-09 17:15:41,14.98330566,0.0002919,69.9996,184.9656,262.7049,97.3778,3.0611e-05,2.72e-06,0.0,0 STARLINK-5994,1 56457U 23064K   24069.71923388  .00000272  00000-0  30611-4 0  9990,2 56457  69.9996 184.9656 0002919 262.7049  97.3778 14.98330566 46261,6950.191,96.107,574.085,570.027,0.0
56457.0,STARLINK-5994,PAYLOAD,2024-03-10 14:05:26,14.98334134,0.0002779,69.9998,182.7786,268.2037,91.8804,1.741e-05,1.15e-06,0.0,0 STARLINK-5994,1 56457U 23064K   24070.58711185  .00000115  00000-0  17410-4 0  9995,2 56457  69.9998 182.7786 0002779 268.2037  91.8804 14.98334134 46034,6950.18,96.107,573.977,570.114,0.0
56457.0,STARLINK-5994,PAYLOAD,2024-03-10 17:17:42,14.98333259,0.0002944,69.9999,182.4424,268.4981,91.584,5.9741e-07,-8.6e-07,0.0,0 STARLINK-5994,1 56457U 23064K   24070.72063234 -.00000086  00000-0  59741-6 0  9999,2 56457  69.9999 182.4424 0002944 268.4981  91.5840 14.98333259 46411,6950.183,96.107,574.094,570.002,0.0
56457.0,STARLINK-5994,PAYLOAD,2024-03-11 14:07:27,14.98333728,0.0002949,69.9996,180.2548,266.4443,93.6379,6.6515e-05,7.01e-06,0.0,0 STARLINK-5994,1 56457U 23064K   24071.58850990  .00000701  00000-0  66515-4 0  9995,2 56457  69.9996 180.2548 0002949 266.4443  93.6379 14.98333728 46182,6950.181,96.107,574.096,569.997,0.0
56457.0,STARLINK-5994,PAYLOAD,2024-03-12 10:57:12,14.98330996,0.0002998,69.9999,178.0669,270.8199,89.2616,7.9327e-06,2e-08,0.0,0 STARLINK-5994,1 56457U 23064K   24072.45639213  .00000002  00000-0  79327-5 0  9995,2 56457  69.9999 178.0669 0002998 270.8199  89.2616 14.98330996 46678,6950.19,96.107,574.138,569.971,0.0
56457.0,STARLINK-5994,PAYLOAD,2024-03-13 12:35:20,14.98335252,0.0002932,70.0006,175.3745,270.8319,89.2504,2.7495e-05,2.35e-06,0.0,0 STARLINK-5994,1 56457U 23064K   24073.52454694  .00000235  00000-0  27495-4 0  9998,2 56457  70.0006 175.3745 0002932 270.8319  89.2504 14.98335252 46831,6950.177,96.107,574.079,570.004,0.0
56457.0,STARLINK-5994,PAYLOAD,2024-03-14 06:12:49,14.98332609,0.0002917,70.0008,173.5232,268.2852,91.7973,2.3334e-05,1.85e-06,0.0,0 STARLINK-5994,1 56457U 23064K   24074.25890670  .00000185  00000-0  23334-4 0  9999,2 56457  70.0008 173.5232 0002917 268.2852  91.7973 14.98332609 46583,6950.185,96.107,574.077,570.022,0.0
